[{"OBJECT_NAME":"LEMUR-2-ARIANNA","OBJECT_ID":"2025-009CU","EPOCH":"2026-03-03T17:46:05.537568","MEAN_MOTION":15.00748084,"ECCENTRICITY":0.00044133,"INCLINATION":97.7026,"RA_OF_ASC_NODE":145.0982,"ARG_OF_PERICENTER":158.1992,"MEAN_ANOMALY":201.9421,"EPHEMERIS_TYPE":0,"CLASSIFICATION_TYPE":"U","NORAD_CAT_ID":62699,"ELEMENT_SET_NO":999,"REV_AT_EPOCH":6173,"BSTAR":0.0008869572,"MEAN_MOTION_DOT":0.00011201,"MEAN_MOTION_DDOT":0},{"OBJECT_NAME":"LEMUR-2-ALISIA","OBJECT_ID":"2025-009DB","EPOCH":"2026-03-03T19:19:07.071744","MEAN_MOTION":15.01014851,"ECCENTRICITY":0.00063271,"INCLINATION":97.7073,"RA_OF_ASC_NODE":145.8132,"ARG_OF_PERICENTER":172.8509,"MEAN_ANOMALY":187.2806,"EPHEMERIS_TYPE":0,"CLASSIFICATION_TYPE":"U","NORAD_CAT_ID":62706,"ELEMENT_SET_NO":999,"REV_AT_EPOCH":8434,"BSTAR":0.00091429686,"MEAN_MOTION_DOT":0.00011632,"MEAN_MOTION_DDOT":0},{"OBJECT_NAME":"LEMUR-2-ROUNDTRIPPER","OBJECT_ID":"2025-009DG","EPOCH":"2026-03-03T18:22:35.172768","MEAN_MOTION":15.01931052,"ECCENTRICITY":0.0004655,"INCLINATION":97.7309,"RA_OF_ASC_NODE":145.7299,"ARG_OF_PERICENTER":141.6091,"MEAN_ANOMALY":218.5466,"EPHEMERIS_TYPE":0,"CLASSIFICATION_TYPE":"U","NORAD_CAT_ID":62711,"ELEMENT_SET_NO":999,"REV_AT_EPOCH":6179,"BSTAR":0.00097110742,"MEAN_MOTION_DOT":0.0001266,"MEAN_MOTION_DDOT":0},{"OBJECT_NAME":"LEMUR-2-MYNAMEISJEFF","OBJECT_ID":"2025-009DH","EPOCH":"2026-03-03T18:20:27.642912","MEAN_MOTION":15.01918498,"ECCENTRICITY":0.00036846,"INCLINATION":97.7357,"RA_OF_ASC_NODE":146.0471,"ARG_OF_PERICENTER":169.5735,"MEAN_ANOMALY":190.5566,"EPHEMERIS_TYPE":0,"CLASSIFICATION_TYPE":"U","NORAD_CAT_ID":62712,"ELEMENT_SET_NO":999,"REV_AT_EPOCH":6179,"BSTAR":0.00096585161,"MEAN_MOTION_DOT":0.00012586,"MEAN_MOTION_DDOT":0},{"OBJECT_NAME":"LEMUR-2-LEIA-PHILIP","OBJECT_ID":"2025-052AN","EPOCH":"2026-03-03T22:22:08.910912","MEAN_MOTION":14.96549006,"ECCENTRICITY":0.0002682,"INCLINATION":97.6975,"RA_OF_ASC_NODE":316.6226,"ARG_OF_PERICENTER":194.5853,"MEAN_ANOMALY":165.5292,"EPHEMERIS_TYPE":0,"CLASSIFICATION_TYPE":"U","NORAD_CAT_ID":63246,"ELEMENT_SET_NO":999,"REV_AT_EPOCH":5292,"BSTAR":0.00079960145,"MEAN_MOTION_DOT":9.045e-5,"MEAN_MOTION_DDOT":0},{"OBJECT_NAME":"LEMUR-2-LIA-MARTIN","OBJECT_ID":"2025-052AQ","EPOCH":"2026-03-03T22:53:53.869344","MEAN_MOTION":14.9671653,"ECCENTRICITY":0.00030311,"INCLINATION":97.7018,"RA_OF_ASC_NODE":317.0016,"ARG_OF_PERICENTER":159.4938,"MEAN_ANOMALY":200.6405,"EPHEMERIS_TYPE":0,"CLASSIFICATION_TYPE":"U","NORAD_CAT_ID":63248,"ELEMENT_SET_NO":999,"REV_AT_EPOCH":5293,"BSTAR":0.00072435411,"MEAN_MOTION_DOT":8.223e-5,"MEAN_MOTION_DDOT":0},{"OBJECT_NAME":"LEMUR-2-DELOITTE-1","OBJECT_ID":"2025-052BB","EPOCH":"2026-03-03T15:43:48.944640","MEAN_MOTION":14.96714805,"ECCENTRICITY":0.0003255,"INCLINATION":97.7056,"RA_OF_ASC_NODE":317.0188,"ARG_OF_PERICENTER":91.2402,"MEAN_ANOMALY":268.9192,"EPHEMERIS_TYPE":0,"CLASSIFICATION_TYPE":"U","NORAD_CAT_ID":63259,"ELEMENT_SET_NO":999,"REV_AT_EPOCH":5290,"BSTAR":0.00062882,"MEAN_MOTION_DOT":7.13e-5,"MEAN_MOTION_DDOT":0},{"OBJECT_NAME":"LEMUR-2-EMERSONROSE","OBJECT_ID":"2025-052BD","EPOCH":"2026-03-03T22:25:45.365376","MEAN_MOTION":14.98143985,"ECCENTRICITY":0.00033352,"INCLINATION":97.7043,"RA_OF_ASC_NODE":317.6418,"ARG_OF_PERICENTER":64.272,"MEAN_ANOMALY":295.8847,"EPHEMERIS_TYPE":0,"CLASSIFICATION_TYPE":"U","NORAD_CAT_ID":63261,"ELEMENT_SET_NO":999,"REV_AT_EPOCH":5297,"BSTAR":0.00074355829,"MEAN_MOTION_DOT":8.761e-5,"MEAN_MOTION_DDOT":0},{"OBJECT_NAME":"LEMUR-2-MARACHE-FRAN","OBJECT_ID":"2025-052BE","EPOCH":"2026-03-03T16:48:41.868576","MEAN_MOTION":14.98785913,"ECCENTRICITY":0.00023625,"INCLINATION":97.7005,"RA_OF_ASC_NODE":317.5999,"ARG_OF_PERICENTER":41.9251,"MEAN_ANOMALY":318.2152,"EPHEMERIS_TYPE":0,"CLASSIFICATION_TYPE":"U","NORAD_CAT_ID":63262,"ELEMENT_SET_NO":999,"REV_AT_EPOCH":5295,"BSTAR":0.00075999184,"MEAN_MOTION_DOT":9.106e-5,"MEAN_MOTION_DDOT":0},{"OBJECT_NAME":"LEMUR-2-THEFALCONER","OBJECT_ID":"2025-052BG","EPOCH":"2026-03-03T22:24:23.676768","MEAN_MOTION":14.96429225,"ECCENTRICITY":0.00027824,"INCLINATION":97.6998,"RA_OF_ASC_NODE":317.0272,"ARG_OF_PERICENTER":35.2815,"MEAN_ANOMALY":324.859,"EPHEMERIS_TYPE":0,"CLASSIFICATION_TYPE":"U","NORAD_CAT_ID":63264,"ELEMENT_SET_NO":999,"REV_AT_EPOCH":5294,"BSTAR":0.00057897814,"MEAN_MOTION_DOT":6.511e-5,"MEAN_MOTION_DDOT":0},{"OBJECT_NAME":"LEMUR-2-UNTITLED-SC","OBJECT_ID":"2025-061A","EPOCH":"2026-03-03T20:56:15.738432","MEAN_MOTION":15.12620173,"ECCENTRICITY":0.00172524,"INCLINATION":97.5548,"RA_OF_ASC_NODE":39.1256,"ARG_OF_PERICENTER":268.6307,"MEAN_ANOMALY":91.2947,"EPHEMERIS_TYPE":0,"CLASSIFICATION_TYPE":"U","NORAD_CAT_ID":63351,"ELEMENT_SET_NO":999,"REV_AT_EPOCH":5166,"BSTAR":0.00042124769,"MEAN_MOTION_DOT":7.32e-5,"MEAN_MOTION_DDOT":0},{"OBJECT_NAME":"LEMUR-2-ESPERANZA","OBJECT_ID":"2025-061B","EPOCH":"2026-03-03T20:31:53.872896","MEAN_MOTION":15.12697196,"ECCENTRICITY":0.00166948,"INCLINATION":97.5554,"RA_OF_ASC_NODE":39.1792,"ARG_OF_PERICENTER":267.9387,"MEAN_ANOMALY":91.9932,"EPHEMERIS_TYPE":0,"CLASSIFICATION_TYPE":"U","NORAD_CAT_ID":63352,"ELEMENT_SET_NO":999,"REV_AT_EPOCH":5166,"BSTAR":0.00037027073,"MEAN_MOTION_DOT":6.438e-5,"MEAN_MOTION_DDOT":0},{"OBJECT_NAME":"LEMUR-2-KREMPEL-BRO2","OBJECT_ID":"2025-061C","EPOCH":"2026-03-03T20:18:15.372864","MEAN_MOTION":15.13100359,"ECCENTRICITY":0.00176245,"INCLINATION":97.5599,"RA_OF_ASC_NODE":39.5692,"ARG_OF_PERICENTER":259.8794,"MEAN_ANOMALY":100.0449,"EPHEMERIS_TYPE":0,"CLASSIFICATION_TYPE":"U","NORAD_CAT_ID":63353,"ELEMENT_SET_NO":999,"REV_AT_EPOCH":5167,"BSTAR":0.00036636418,"MEAN_MOTION_DOT":6.444e-5,"MEAN_MOTION_DDOT":0},{"OBJECT_NAME":"LEMUR-2-THERMORAPTOR","OBJECT_ID":"2025-061D","EPOCH":"2026-03-03T19:59:25.588320","MEAN_MOTION":15.13176632,"ECCENTRICITY":0.00174732,"INCLINATION":97.5605,"RA_OF_ASC_NODE":39.6132,"ARG_OF_PERICENTER":258.7881,"MEAN_ANOMALY":101.1386,"EPHEMERIS_TYPE":0,"CLASSIFICATION_TYPE":"U","NORAD_CAT_ID":63354,"ELEMENT_SET_NO":999,"REV_AT_EPOCH":5167,"BSTAR":0.0003848692,"MEAN_MOTION_DOT":6.787e-5,"MEAN_MOTION_DDOT":0},{"OBJECT_NAME":"LEMUR-2-NEUROSPICY","OBJECT_ID":"2025-061E","EPOCH":"2026-03-03T19:30:02.224800","MEAN_MOTION":15.1328997,"ECCENTRICITY":0.00153084,"INCLINATION":97.553,"RA_OF_ASC_NODE":39.3014,"ARG_OF_PERICENTER":263.163,"MEAN_ANOMALY":96.786,"EPHEMERIS_TYPE":0,"CLASSIFICATION_TYPE":"U","NORAD_CAT_ID":63355,"ELEMENT_SET_NO":999,"REV_AT_EPOCH":5167,"BSTAR":0.00050175988,"MEAN_MOTION_DOT":8.892e-5,"MEAN_MOTION_DDOT":0},{"OBJECT_NAME":"LEMUR-2-TILLINFINITY","OBJECT_ID":"2025-061F","EPOCH":"2026-03-03T19:44:04.712928","MEAN_MOTION":15.13863667,"ECCENTRICITY":0.00165882,"INCLINATION":97.5516,"RA_OF_ASC_NODE":39.5281,"ARG_OF_PERICENTER":250.0405,"MEAN_ANOMALY":109.904,"EPHEMERIS_TYPE":0,"CLASSIFICATION_TYPE":"U","NORAD_CAT_ID":63356,"ELEMENT_SET_NO":999,"REV_AT_EPOCH":5169,"BSTAR":0.00040646393,"MEAN_MOTION_DOT":7.31e-5,"MEAN_MOTION_DDOT":0}]
