LEMUR-2-ARIANNA         
1 62699U 25009CU  26062.74034187  .00011201  00000+0  88696-3 0  9992
2 62699  97.7026 145.0982 0004413 158.1992 201.9421 15.00748084 61734
LEMUR-2-ALISIA          
1 62706U 25009DB  26062.80494296  .00011632  00000+0  91430-3 0  9997
2 62706  97.7073 145.8132 0006327 172.8509 187.2806 15.01014851 84347
LEMUR-2-ROUNDTRIPPER    
1 62711U 25009DG  26062.76568487  .00012660  00000+0  97111-3 0  9996
2 62711  97.7309 145.7299 0004655 141.6091 218.5466 15.01931052 61795
LEMUR-2-MYNAMEISJEFF    
1 62712U 25009DH  26062.76420883  .00012586  00000+0  96585-3 0  9995
2 62712  97.7357 146.0471 0003684 169.5735 190.5566 15.01918498 61799
LEMUR-2-LEIA-PHILIP     
1 63246U 25052AN  26062.93204758  .00009045  00000+0  79960-3 0  9990
2 63246  97.6975 316.6226 0002682 194.5853 165.5292 14.96549006 52927
LEMUR-2-LIA-MARTIN      
1 63248U 25052AQ  26062.95409571  .00008223  00000+0  72435-3 0  9991
2 63248  97.7018 317.0016 0003031 159.4938 200.6405 14.96716530 52939
LEMUR-2-DELOITTE-1      
1 63259U 25052BB  26062.65542760  .00007130  00000+0  62882-3 0  9999
2 63259  97.7056 317.0188 0003255  91.2402 268.9192 14.96714805 52900
LEMUR-2-EMERSONROSE     
1 63261U 25052BD  26062.93455284  .00008761  00000+0  74356-3 0  9997
2 63261  97.7043 317.6418 0003335  64.2720 295.8847 14.98143985 52973
LEMUR-2-MARACHE-FRAN    
1 63262U 25052BE  26062.70048459  .00009106  00000+0  75999-3 0  9993
2 63262  97.7005 317.5999 0002362  41.9251 318.2152 14.98785913 52955
LEMUR-2-THEFALCONER     
1 63264U 25052BG  26062.93360737  .00006511  00000+0  57898-3 0  9991
2 63264  97.6998 317.0272 0002782  35.2815 324.8590 14.96429225 52941
LEMUR-2-UNTITLED-SC     
1 63351U 25061A   26062.87240438  .00007320  00000+0  42125-3 0  9992
2 63351  97.5548  39.1256 0017252 268.6307  91.2947 15.12620173 51661
LEMUR-2-ESPERANZA       
1 63352U 25061B   26062.85548464  .00006438  00000+0  37027-3 0  9995
2 63352  97.5554  39.1792 0016694 267.9387  91.9932 15.12697196 51663
LEMUR-2-KREMPEL-BRO2    
1 63353U 25061C   26062.84601126  .00006444  00000+0  36636-3 0  9992
2 63353  97.5599  39.5692 0017624 259.8794 100.0449 15.13100359 51679
LEMUR-2-THERMORAPTOR    
1 63354U 25061D   26062.83293505  .00006787  00000+0  38487-3 0  9996
2 63354  97.5605  39.6132 0017473 258.7881 101.1386 15.13176632 51674
LEMUR-2-NEUROSPICY      
1 63355U 25061E   26062.81252575  .00008892  00000+0  50176-3 0  9995
2 63355  97.5530  39.3014 0015308 263.1630  96.7860 15.13289970 51671
LEMUR-2-TILLINFINITY    
1 63356U 25061F   26062.82227677  .00007310  00000+0  40646-3 0  9997
2 63356  97.5516  39.5281 0016588 250.0405 109.9040 15.13863667 51690
